[{"OBJECT_NAME":"STARLINK-36850","OBJECT_ID":"2026-044U","EPOCH":"2026-04-03T06:00:00.999648","MEAN_MOTION":15.56010134,"ECCENTRICITY":0.00014238,"INCLINATION":97.2856,"RA_OF_ASC_NODE":54.5603,"ARG_OF_PERICENTER":110.1717,"MEAN_ANOMALY":256.4633,"EPHEMERIS_TYPE":0,"CLASSIFICATION_TYPE":"U","NORAD_CAT_ID":68119,"ELEMENT_SET_NO":999,"REV_AT_EPOCH":530,"BSTAR":-0.030410541,"MEAN_MOTION_DOT":-0.0187039,"MEAN_MOTION_DDOT":0},{"OBJECT_NAME":"STARLINK-36868","OBJECT_ID":"2026-044V","EPOCH":"2026-04-03T06:00:00.999648","MEAN_MOTION":15.56554397,"ECCENTRICITY":0.00014002,"INCLINATION":97.2856,"RA_OF_ASC_NODE":54.5675,"ARG_OF_PERICENTER":101.5513,"MEAN_ANOMALY":281.9105,"EPHEMERIS_TYPE":0,"CLASSIFICATION_TYPE":"U","NORAD_CAT_ID":68120,"ELEMENT_SET_NO":999,"REV_AT_EPOCH":530,"BSTAR":-0.029695522,"MEAN_MOTION_DOT":-0.01864553,"MEAN_MOTION_DDOT":0},{"OBJECT_NAME":"STARLINK-36855","OBJECT_ID":"2026-044W","EPOCH":"2026-04-03T06:00:00.999648","MEAN_MOTION":15.55103322,"ECCENTRICITY":0.00014225,"INCLINATION":97.2854,"RA_OF_ASC_NODE":54.5586,"ARG_OF_PERICENTER":98.1501,"MEAN_ANOMALY":265.4677,"EPHEMERIS_TYPE":0,"CLASSIFICATION_TYPE":"U","NORAD_CAT_ID":68121,"ELEMENT_SET_NO":999,"REV_AT_EPOCH":530,"BSTAR":-0.031088954,"MEAN_MOTION_DOT":-0.01851391,"MEAN_MOTION_DDOT":0},{"OBJECT_NAME":"STARLINK-36366","OBJECT_ID":"2026-044X","EPOCH":"2026-04-03T06:00:00.999648","MEAN_MOTION":15.55412295,"ECCENTRICITY":0.00013144,"INCLINATION":97.2856,"RA_OF_ASC_NODE":54.5614,"ARG_OF_PERICENTER":104.5499,"MEAN_ANOMALY":266.2655,"EPHEMERIS_TYPE":0,"CLASSIFICATION_TYPE":"U","NORAD_CAT_ID":68122,"ELEMENT_SET_NO":999,"REV_AT_EPOCH":535,"BSTAR":-0.030855873,"MEAN_MOTION_DOT":-0.01857722,"MEAN_MOTION_DDOT":0},{"OBJECT_NAME":"STARLINK-36922","OBJECT_ID":"2026-044Y","EPOCH":"2026-04-03T06:00:00.999648","MEAN_MOTION":15.55922727,"ECCENTRICITY":0.00016255,"INCLINATION":97.2855,"RA_OF_ASC_NODE":54.572,"ARG_OF_PERICENTER":101.3042,"MEAN_ANOMALY":291.9435,"EPHEMERIS_TYPE":0,"CLASSIFICATION_TYPE":"U","NORAD_CAT_ID":68123,"ELEMENT_SET_NO":999,"REV_AT_EPOCH":535,"BSTAR":-0.030431112,"MEAN_MOTION_DOT":-0.01866262,"MEAN_MOTION_DDOT":0},{"OBJECT_NAME":"STARLINK-36938","OBJECT_ID":"2026-044Z","EPOCH":"2026-04-03T03:09:32.461344","MEAN_MOTION":15.75297936,"ECCENTRICITY":9.79e-5,"INCLINATION":97.287,"RA_OF_ASC_NODE":54.5675,"ARG_OF_PERICENTER":91.9175,"MEAN_ANOMALY":268.2203,"EPHEMERIS_TYPE":0,"CLASSIFICATION_TYPE":"U","NORAD_CAT_ID":68124,"ELEMENT_SET_NO":999,"REV_AT_EPOCH":533,"BSTAR":0.0023986821,"MEAN_MOTION_DOT":0.00375607,"MEAN_MOTION_DDOT":0},{"OBJECT_NAME":"STARLINK-36839","OBJECT_ID":"2026-044AA","EPOCH":"2026-04-03T06:00:00.999648","MEAN_MOTION":15.55969243,"ECCENTRICITY":0.00016154,"INCLINATION":97.2856,"RA_OF_ASC_NODE":54.5697,"ARG_OF_PERICENTER":97.0869,"MEAN_ANOMALY":290.8192,"EPHEMERIS_TYPE":0,"CLASSIFICATION_TYPE":"U","NORAD_CAT_ID":68125,"ELEMENT_SET_NO":999,"REV_AT_EPOCH":530,"BSTAR":-0.030522566,"MEAN_MOTION_DOT":-0.01874087,"MEAN_MOTION_DDOT":0},{"OBJECT_NAME":"ECHOSTAR 25","OBJECT_ID":"2026-045A","EPOCH":"2026-04-03T05:22:13.512864","MEAN_MOTION":1.00270499,"ECCENTRICITY":0.00015956,"INCLINATION":0.0388,"RA_OF_ASC_NODE":280.294,"ARG_OF_PERICENTER":152.236,"MEAN_ANOMALY":70.7314,"EPHEMERIS_TYPE":0,"CLASSIFICATION_TYPE":"U","NORAD_CAT_ID":68126,"ELEMENT_SET_NO":999,"REV_AT_EPOCH":24,"BSTAR":0,"MEAN_MOTION_DOT":5.5e-7,"MEAN_MOTION_DDOT":0},{"OBJECT_NAME":"ICOR SV","OBJECT_ID":"2026-046A","EPOCH":"2026-04-03T02:04:42.818016","MEAN_MOTION":15.99402782,"ECCENTRICITY":0.00907112,"INCLINATION":123.0723,"RA_OF_ASC_NODE":317.4998,"ARG_OF_PERICENTER":233.497,"MEAN_ANOMALY":125.7725,"EPHEMERIS_TYPE":0,"CLASSIFICATION_TYPE":"U","NORAD_CAT_ID":68127,"ELEMENT_SET_NO":999,"REV_AT_EPOCH":348,"BSTAR":0.00075989516,"MEAN_MOTION_DOT":0.00619867,"MEAN_MOTION_DDOT":1.2252523e-5},{"OBJECT_NAME":"FIREFLY ALPHA R/B","OBJECT_ID":"2026-046B","EPOCH":"2026-04-03T05:31:18.538752","MEAN_MOTION":15.57769827,"ECCENTRICITY":0.00171537,"INCLINATION":123.0923,"RA_OF_ASC_NODE":313.2857,"ARG_OF_PERICENTER":28.1031,"MEAN_ANOMALY":332.0953,"EPHEMERIS_TYPE":0,"CLASSIFICATION_TYPE":"U","NORAD_CAT_ID":68128,"ELEMENT_SET_NO":999,"REV_AT_EPOCH":346,"BSTAR":0.00072862717,"MEAN_MOTION_DOT":0.00055313,"MEAN_MOTION_DDOT":0},{"OBJECT_NAME":"GUOWANG GROUP 20 OBJECT A","OBJECT_ID":"2026-047A","EPOCH":"2026-04-02T17:28:37.836480","MEAN_MOTION":13.85294462,"ECCENTRICITY":5.962e-5,"INCLINATION":50.005,"RA_OF_ASC_NODE":333.25,"ARG_OF_PERICENTER":153.6332,"MEAN_ANOMALY":206.4595,"EPHEMERIS_TYPE":0,"CLASSIFICATION_TYPE":"U","NORAD_CAT_ID":68129,"ELEMENT_SET_NO":999,"REV_AT_EPOCH":293,"BSTAR":5.0251468e-5,"MEAN_MOTION_DOT":-8.7e-7,"MEAN_MOTION_DDOT":0},{"OBJECT_NAME":"GUOWANG GROUP 20 OBJECT B","OBJECT_ID":"2026-047B","EPOCH":"2026-04-01T05:04:40.456704","MEAN_MOTION":13.87767313,"ECCENTRICITY":1.339e-5,"INCLINATION":50.0054,"RA_OF_ASC_NODE":339.2252,"ARG_OF_PERICENTER":185.6237,"MEAN_ANOMALY":174.4659,"EPHEMERIS_TYPE":0,"CLASSIFICATION_TYPE":"U","NORAD_CAT_ID":68130,"ELEMENT_SET_NO":999,"REV_AT_EPOCH":271,"BSTAR":6.9791497e-5,"MEAN_MOTION_DOT":-6.2e-7,"MEAN_MOTION_DDOT":0},{"OBJECT_NAME":"GUOWANG GROUP 20 OBJECT C","OBJECT_ID":"2026-047C","EPOCH":"2026-04-02T12:08:18.567744","MEAN_MOTION":13.863205,"ECCENTRICITY":6.698e-5,"INCLINATION":50.0019,"RA_OF_ASC_NODE":334.0677,"ARG_OF_PERICENTER":236.5521,"MEAN_ANOMALY":123.5312,"EPHEMERIS_TYPE":0,"CLASSIFICATION_TYPE":"U","NORAD_CAT_ID":68131,"ELEMENT_SET_NO":999,"REV_AT_EPOCH":290,"BSTAR":4.2135642e-5,"MEAN_MOTION_DOT":-9.6e-7,"MEAN_MOTION_DDOT":0},{"OBJECT_NAME":"GUOWANG GROUP 20 OBJECT D","OBJECT_ID":"2026-047D","EPOCH":"2026-04-02T13:48:14.018400","MEAN_MOTION":13.8659404,"ECCENTRICITY":7.103e-5,"INCLINATION":50.0067,"RA_OF_ASC_NODE":333.7806,"ARG_OF_PERICENTER":245.036,"MEAN_ANOMALY":115.0463,"EPHEMERIS_TYPE":0,"CLASSIFICATION_TYPE":"U","NORAD_CAT_ID":68132,"ELEMENT_SET_NO":999,"REV_AT_EPOCH":290,"BSTAR":5.1916391e-5,"MEAN_MOTION_DOT":-8.4e-7,"MEAN_MOTION_DDOT":0},{"OBJECT_NAME":"GUOWANG GROUP 20 OBJECT E","OBJECT_ID":"2026-047E","EPOCH":"2026-04-02T17:11:29.001696","MEAN_MOTION":13.86278934,"ECCENTRICITY":6.404e-5,"INCLINATION":50.0032,"RA_OF_ASC_NODE":333.1791,"ARG_OF_PERICENTER":212.532,"MEAN_ANOMALY":147.5538,"EPHEMERIS_TYPE":0,"CLASSIFICATION_TYPE":"U","NORAD_CAT_ID":68133,"ELEMENT_SET_NO":999,"REV_AT_EPOCH":293,"BSTAR":3.5303012e-5,"MEAN_MOTION_DOT":-1.04e-6,"MEAN_MOTION_DDOT":0},{"OBJECT_NAME":"GUOWANG GROUP 20 OBJECT F","OBJECT_ID":"2026-047F","EPOCH":"2026-04-02T13:36:24.060096","MEAN_MOTION":13.8719072,"ECCENTRICITY":6.29e-5,"INCLINATION":50.0093,"RA_OF_ASC_NODE":333.7419,"ARG_OF_PERICENTER":256.4099,"MEAN_ANOMALY":103.6728,"EPHEMERIS_TYPE":0,"CLASSIFICATION_TYPE":"U","NORAD_CAT_ID":68134,"ELEMENT_SET_NO":999,"REV_AT_EPOCH":290,"BSTAR":9.5092278e-5,"MEAN_MOTION_DOT":-3.3e-7,"MEAN_MOTION_DDOT":0}]
