STARLINK-36850          
1 68119U 26044U   26093.25001157 -.01870390  00000+0 -30411-1 0  9991
2 68119  97.2856  54.5603 0001423 110.1717 256.4633 15.56010134  5308
STARLINK-36868          
1 68120U 26044V   26093.25001157 -.01864553  00000+0 -29696-1 0  9990
2 68120  97.2856  54.5675 0001400 101.5513 281.9105 15.56554397  5303
STARLINK-36855          
1 68121U 26044W   26093.25001157 -.01851391  00000+0 -31089-1 0  9996
2 68121  97.2854  54.5586 0001422  98.1501 265.4677 15.55103322  5303
STARLINK-36366          
1 68122U 26044X   26093.25001157 -.01857722  00000+0 -30856-1 0  9992
2 68122  97.2856  54.5614 0001314 104.5499 266.2655 15.55412295  5358
STARLINK-36922          
1 68123U 26044Y   26093.25001157 -.01866262  00000+0 -30431-1 0  9991
2 68123  97.2855  54.5720 0001625 101.3042 291.9435 15.55922727  5357
STARLINK-36938          
1 68124U 26044Z   26093.13162571  .00375607  00000+0  23987-2 0  9991
2 68124  97.2870  54.5675 0000979  91.9175 268.2203 15.75297936  5333
STARLINK-36839          
1 68125U 26044AA  26093.25001157 -.01874087  00000+0 -30523-1 0  9999
2 68125  97.2856  54.5697 0001615  97.0869 290.8192 15.55969243  5307
ECHOSTAR 25             
1 68126U 26045A   26093.22376751  .00000055  00000+0  00000+0 0  9991
2 68126   0.0388 280.2940 0001595 152.2360  70.7314  1.00270499   248
ICOR SV                 
1 68127U 26046A   26093.08660669  .00619867  12253-4  75990-3 0  9990
2 68127 123.0723 317.4998 0090711 233.4970 125.7725 15.99402782  3482
FIREFLY ALPHA R/B       
1 68128U 26046B   26093.23007568  .00055313  00000+0  72863-3 0  9999
2 68128 123.0923 313.2857 0017153  28.1031 332.0953 15.57769827  3463
GUOWANG GROUP 20 OBJECT*
1 68129U 26047A   26092.72821570 -.00000087  00000+0  50251-4 0  9998
2 68129  50.0050 333.2500 0000596 153.6332 206.4595 13.85294462  2936
GUOWANG GROUP 20 OBJECT*
1 68130U 26047B   26091.21157936 -.00000062  00000+0  69791-4 0  9993
2 68130  50.0054 339.2252 0000133 185.6237 174.4659 13.87767313  2711
GUOWANG GROUP 20 OBJECT*
1 68131U 26047C   26092.50577046 -.00000096  00000+0  42136-4 0  9996
2 68131  50.0019 334.0677 0000669 236.5521 123.5312 13.86320500  2907
GUOWANG GROUP 20 OBJECT*
1 68132U 26047D   26092.57516225 -.00000084  00000+0  51916-4 0  9999
2 68132  50.0067 333.7806 0000710 245.0360 115.0463 13.86594040  2909
GUOWANG GROUP 20 OBJECT*
1 68133U 26047E   26092.71630789 -.00000104  00000+0  35303-4 0  9993
2 68133  50.0032 333.1791 0000640 212.5320 147.5538 13.86278934  2933
GUOWANG GROUP 20 OBJECT*
1 68134U 26047F   26092.56694514 -.00000033  00000+0  95092-4 0  9995
2 68134  50.0093 333.7419 0000629 256.4099 103.6728 13.87190720  2909
